[{"OBJECT_NAME":"HULIANWANG DIGUI-14","OBJECT_ID":"2025-030D","EPOCH":"2026-03-09T21:21:21.489120","MEAN_MOTION":13.29338023,"ECCENTRICITY":7.928e-5,"INCLINATION":50.0017,"RA_OF_ASC_NODE":231.7623,"ARG_OF_PERICENTER":168.7987,"MEAN_ANOMALY":191.2903,"EPHEMERIS_TYPE":0,"CLASSIFICATION_TYPE":"U","NORAD_CAT_ID":62974,"ELEMENT_SET_NO":999,"REV_AT_EPOCH":5265,"BSTAR":0.00011578631,"MEAN_MOTION_DOT":-7.0e-7,"MEAN_MOTION_DDOT":0},{"OBJECT_NAME":"COSMOS 2251 DEB","OBJECT_ID":"1993-036BXF","EPOCH":"2026-02-26T06:00:17.828640","MEAN_MOTION":13.67442496,"ECCENTRICITY":0.0340476,"INCLINATION":74.0972,"RA_OF_ASC_NODE":60.1411,"ARG_OF_PERICENTER":156.9473,"MEAN_ANOMALY":223.2083,"EPHEMERIS_TYPE":0,"CLASSIFICATION_TYPE":"U","NORAD_CAT_ID":47051,"ELEMENT_SET_NO":999,"REV_AT_EPOCH":60970,"BSTAR":0.00084654,"MEAN_MOTION_DOT":1.045e-5,"MEAN_MOTION_DDOT":0}]
